{
    "links": {
        "self": "http://www.neowsapp.com/rest/v1/neo/3842901?api_key=iIulBulltgU6a56xZRHN4H3l9WmuAYTsLGpBGhQ2"
    },
    "id": "3842901",
    "neo_reference_id": "3842901",
    "name": "(2019 LG6)",
    "designation": "2019 LG6",
    "nasa_jpl_url": "http://ssd.jpl.nasa.gov/sbdb.cgi?sstr=3842901",
    "absolute_magnitude_h": 21.8,
    "estimated_diameter": {
        "kilometers": {
            "estimated_diameter_min": 0.1160259082,
            "estimated_diameter_max": 0.2594418179
        },
        "meters": {
            "estimated_diameter_min": 116.0259082094,
            "estimated_diameter_max": 259.4418179074
        },
        "miles": {
            "estimated_diameter_min": 0.0720951346,
            "estimated_diameter_max": 0.1612096218
        },
        "feet": {
            "estimated_diameter_min": 380.6624406898,
            "estimated_diameter_max": 851.1870938635
        }
    },
    "is_potentially_hazardous_asteroid": true,
    "close_approach_data": [
        {
            "close_approach_date": "2019-06-16",
            "close_approach_date_full": "2019-Jun-16 10:03",
            "epoch_date_close_approach": 1560679380000,
            "relative_velocity": {
                "kilometers_per_second": "25.7768669133",
                "kilometers_per_hour": "92796.7208878541",
                "miles_per_hour": "57660.2735983447"
            },
            "miss_distance": {
                "astronomical": "0.0968690498",
                "lunar": "37.6820603722",
                "kilometers": "14491403.519003926",
                "miles": "9004540.6006131388"
            },
            "orbiting_body": "Earth"
        }
    ],
    "orbital_data": {
        "orbit_id": "1",
        "orbit_determination_date": "2019-06-19 11:12:10",
        "first_observation_date": "2019-06-10",
        "last_observation_date": "2019-06-15",
        "data_arc_in_days": 5,
        "observations_used": 55,
        "orbit_uncertainty": "9",
        "minimum_orbit_intersection": ".0358982",
        "jupiter_tisserand_invariant": "3.140",
        "epoch_osculation": "2458645.5",
        "eccentricity": ".7371519074378119",
        "semi_major_axis": "2.277432545727669",
        "inclination": "16.89394884587309",
        "ascending_node_longitude": "95.84686464896804",
        "orbital_period": "1255.355445644341",
        "perihelion_distance": ".5986188005835659",
        "perihelion_argument": "260.5945232212899",
        "aphelion_distance": "3.956246290871771",
        "perihelion_time": "2458696.384851933257",
        "mean_anomaly": "345.4076813387542",
        "mean_motion": ".286771369215849",
        "equinox": "J2000",
        "orbit_class": {
            "orbit_class_type": "APO",
            "orbit_class_description": "Near-Earth asteroid orbits which cross the Earth’s orbit similar to that of 1862 Apollo",
            "orbit_class_range": "a (semi-major axis) > 1.0 AU; q (perihelion) < 1.017 AU"
        }
    },
    "is_sentry_object": false
}